NAVSTAR 46 (USA 145)    
1 25933U 99055A   25103.53106896 -.00000067  00000+0  00000+0 0  9991
2 25933  51.8413 314.2057 0115219 160.6369 207.0497  2.00559857186968
NAVSTAR 47 (USA 150)    
1 26360U 00025A   25103.80341907 -.00000087  00000+0  00000+0 0  9991
2 26360  54.8936  36.6644 0037278 232.4043 130.8247  2.00555286182669
NAVSTAR 48 (USA 151)    
1 26407U 00040A   25103.53276046 -.00000012  00000+0  00000+0 0  9999
2 26407  54.9593 232.2345 0133791 298.5573  68.1223  2.00564929181335
NAVSTAR 49 (USA 154)    
1 26605U 00071A   25103.60750027  .00000044  00000+0  00000+0 0  9991
2 26605  55.3957 111.9316 0164768 262.6480  87.2995  2.00560019178893
NAVSTAR 52 (USA 168)    
1 27704U 03010A   25081.33616274 -.00000078  00000+0  00000+0 0  9996
2 27704  55.0268 342.5621 0261244 335.7530 202.5817  2.00572348161044
NAVSTAR 53 (USA 175)    
1 28129U 03058A   25074.92652365 -.00000077  00000+0  00000+0 0  9997
2 28129  54.7678  40.3000 0057705 347.7703  12.0706  1.94476146    34
NAVSTAR 54 (USA 177)    
1 28190U 04009A   25103.36086488 -.00000041  00000+0  00000+0 0  9991
2 28190  55.1948 293.0121 0103027 158.3277  20.4115  2.00569440154326
NAVSTAR 55 (USA 178)    
1 28361U 04023A   25102.48108684  .00000037  00000+0  00000+0 0  9996
2 28361  54.5827 104.1348 0156082 289.5783 149.5638  2.00561459152408
NAVSTAR 56 (USA 180)    
1 28474U 04045A   25102.97656707 -.00000089  00000+0  00000+0 0  9991
2 28474  55.3456 342.1953 0166643 302.0472  21.0864  2.00558658149796
NAVSTAR 57 (USA 183)    
1 28874U 05038A   25103.41287668 -.00000039  00000+0  00000+0 0  9999
2 28874  55.2392 290.4815 0132770 289.8472 312.3144  2.00564957143213
NAVSTAR 58 (USA 190)    
1 29486U 06042A   25103.85887002  .00000045  00000+0  00000+0 0  9997
2 29486  54.6793 168.3722 0104024  45.6122  59.0338  2.00566476135783
