[
    {
        "OBJECT_NAME": "NAVSTAR 46 (USA 145)",
        "OBJECT_ID": "1999-055A",
        "EPOCH": "2025-04-13T12:44:44.358144",
        "MEAN_MOTION": 2.00559857,
        "ECCENTRICITY": 0.0115219,
        "INCLINATION": 51.8413,
        "RA_OF_ASC_NODE": 314.2057,
        "ARG_OF_PERICENTER": 160.6369,
        "MEAN_ANOMALY": 207.0497,
        "EPHEMERIS_TYPE": 0,
        "CLASSIFICATION_TYPE": "U",
        "NORAD_CAT_ID": 25933,
        "ELEMENT_SET_NO": 999,
        "REV_AT_EPOCH": 18696,
        "BSTAR": 0,
        "MEAN_MOTION_DOT": -6.7e-07,
        "MEAN_MOTION_DDOT": 0
    },
    {
        "OBJECT_NAME": "NAVSTAR 47 (USA 150)",
        "OBJECT_ID": "2000-025A",
        "EPOCH": "2025-04-13T19:16:55.407648",
        "MEAN_MOTION": 2.00555286,
        "ECCENTRICITY": 0.0037278,
        "INCLINATION": 54.8936,
        "RA_OF_ASC_NODE": 36.6644,
        "ARG_OF_PERICENTER": 232.4043,
        "MEAN_ANOMALY": 130.8247,
        "EPHEMERIS_TYPE": 0,
        "CLASSIFICATION_TYPE": "U",
        "NORAD_CAT_ID": 26360,
        "ELEMENT_SET_NO": 999,
        "REV_AT_EPOCH": 18266,
        "BSTAR": 0,
        "MEAN_MOTION_DOT": -8.7e-07,
        "MEAN_MOTION_DDOT": 0
    },
    {
        "OBJECT_NAME": "NAVSTAR 48 (USA 151)",
        "OBJECT_ID": "2000-040A",
        "EPOCH": "2025-04-13T12:47:10.503744",
        "MEAN_MOTION": 2.00564929,
        "ECCENTRICITY": 0.0133791,
        "INCLINATION": 54.9593,
        "RA_OF_ASC_NODE": 232.2345,
        "ARG_OF_PERICENTER": 298.5573,
        "MEAN_ANOMALY": 68.1223,
        "EPHEMERIS_TYPE": 0,
        "CLASSIFICATION_TYPE": "U",
        "NORAD_CAT_ID": 26407,
        "ELEMENT_SET_NO": 999,
        "REV_AT_EPOCH": 18133,
        "BSTAR": 0,
        "MEAN_MOTION_DOT": -1.2e-07,
        "MEAN_MOTION_DDOT": 0
    },
    {
        "OBJECT_NAME": "NAVSTAR 49 (USA 154)",
        "OBJECT_ID": "2000-071A",
        "EPOCH": "2025-04-13T14:34:48.023328",
        "MEAN_MOTION": 2.00560019,
        "ECCENTRICITY": 0.0164768,
        "INCLINATION": 55.3957,
        "RA_OF_ASC_NODE": 111.9316,
        "ARG_OF_PERICENTER": 262.648,
        "MEAN_ANOMALY": 87.2995,
        "EPHEMERIS_TYPE": 0,
        "CLASSIFICATION_TYPE": "U",
        "NORAD_CAT_ID": 26605,
        "ELEMENT_SET_NO": 999,
        "REV_AT_EPOCH": 17889,
        "BSTAR": 0,
        "MEAN_MOTION_DOT": 4.4e-07,
        "MEAN_MOTION_DDOT": 0
    },
    {
        "OBJECT_NAME": "NAVSTAR 52 (USA 168)",
        "OBJECT_ID": "2003-010A",
        "EPOCH": "2025-03-22T08:04:04.460736",
        "MEAN_MOTION": 2.00572348,
        "ECCENTRICITY": 0.0261244,
        "INCLINATION": 55.0268,
        "RA_OF_ASC_NODE": 342.5621,
        "ARG_OF_PERICENTER": 335.753,
        "MEAN_ANOMALY": 202.5817,
        "EPHEMERIS_TYPE": 0,
        "CLASSIFICATION_TYPE": "U",
        "NORAD_CAT_ID": 27704,
        "ELEMENT_SET_NO": 999,
        "REV_AT_EPOCH": 16104,
        "BSTAR": 0,
        "MEAN_MOTION_DOT": -7.8e-07,
        "MEAN_MOTION_DDOT": 0
    },
    {
        "OBJECT_NAME": "NAVSTAR 53 (USA 175)",
        "OBJECT_ID": "2003-058A",
        "EPOCH": "2025-03-15T22:14:11.643360",
        "MEAN_MOTION": 1.94476146,
        "ECCENTRICITY": 0.0057705,
        "INCLINATION": 54.7678,
        "RA_OF_ASC_NODE": 40.3,
        "ARG_OF_PERICENTER": 347.7703,
        "MEAN_ANOMALY": 12.0706,
        "EPHEMERIS_TYPE": 0,
        "CLASSIFICATION_TYPE": "U",
        "NORAD_CAT_ID": 28129,
        "ELEMENT_SET_NO": 999,
        "REV_AT_EPOCH": 3,
        "BSTAR": 0,
        "MEAN_MOTION_DOT": -7.7e-07,
        "MEAN_MOTION_DDOT": 0
    },
    {
        "OBJECT_NAME": "NAVSTAR 54 (USA 177)",
        "OBJECT_ID": "2004-009A",
        "EPOCH": "2025-04-13T08:39:38.725632",
        "MEAN_MOTION": 2.0056944,
        "ECCENTRICITY": 0.0103027,
        "INCLINATION": 55.1948,
        "RA_OF_ASC_NODE": 293.0121,
        "ARG_OF_PERICENTER": 158.3277,
        "MEAN_ANOMALY": 20.4115,
        "EPHEMERIS_TYPE": 0,
        "CLASSIFICATION_TYPE": "U",
        "NORAD_CAT_ID": 28190,
        "ELEMENT_SET_NO": 999,
        "REV_AT_EPOCH": 15432,
        "BSTAR": 0,
        "MEAN_MOTION_DOT": -4.1e-07,
        "MEAN_MOTION_DDOT": 0
    },
    {
        "OBJECT_NAME": "NAVSTAR 55 (USA 178)",
        "OBJECT_ID": "2004-023A",
        "EPOCH": "2025-04-12T11:32:45.902976",
        "MEAN_MOTION": 2.00561459,
        "ECCENTRICITY": 0.0156082,
        "INCLINATION": 54.5827,
        "RA_OF_ASC_NODE": 104.1348,
        "ARG_OF_PERICENTER": 289.5783,
        "MEAN_ANOMALY": 149.5638,
        "EPHEMERIS_TYPE": 0,
        "CLASSIFICATION_TYPE": "U",
        "NORAD_CAT_ID": 28361,
        "ELEMENT_SET_NO": 999,
        "REV_AT_EPOCH": 15240,
        "BSTAR": 0,
        "MEAN_MOTION_DOT": 3.7e-07,
        "MEAN_MOTION_DDOT": 0
    },
    {
        "OBJECT_NAME": "NAVSTAR 56 (USA 180)",
        "OBJECT_ID": "2004-045A",
        "EPOCH": "2025-04-12T23:26:15.394848",
        "MEAN_MOTION": 2.00558658,
        "ECCENTRICITY": 0.0166643,
        "INCLINATION": 55.3456,
        "RA_OF_ASC_NODE": 342.1953,
        "ARG_OF_PERICENTER": 302.0472,
        "MEAN_ANOMALY": 21.0864,
        "EPHEMERIS_TYPE": 0,
        "CLASSIFICATION_TYPE": "U",
        "NORAD_CAT_ID": 28474,
        "ELEMENT_SET_NO": 999,
        "REV_AT_EPOCH": 14979,
        "BSTAR": 0,
        "MEAN_MOTION_DOT": -8.9e-07,
        "MEAN_MOTION_DDOT": 0
    },
    {
        "OBJECT_NAME": "NAVSTAR 57 (USA 183)",
        "OBJECT_ID": "2005-038A",
        "EPOCH": "2025-04-13T09:54:32.545152",
        "MEAN_MOTION": 2.00564957,
        "ECCENTRICITY": 0.013277,
        "INCLINATION": 55.2392,
        "RA_OF_ASC_NODE": 290.4815,
        "ARG_OF_PERICENTER": 289.8472,
        "MEAN_ANOMALY": 312.3144,
        "EPHEMERIS_TYPE": 0,
        "CLASSIFICATION_TYPE": "U",
        "NORAD_CAT_ID": 28874,
        "ELEMENT_SET_NO": 999,
        "REV_AT_EPOCH": 14321,
        "BSTAR": 0,
        "MEAN_MOTION_DOT": -3.9e-07,
        "MEAN_MOTION_DDOT": 0
    },
    {
        "OBJECT_NAME": "NAVSTAR 58 (USA 190)",
        "OBJECT_ID": "2006-042A",
        "EPOCH": "2025-04-13T20:36:46.369728",
        "MEAN_MOTION": 2.00566476,
        "ECCENTRICITY": 0.0104024,
        "INCLINATION": 54.6793,
        "RA_OF_ASC_NODE": 168.3722,
        "ARG_OF_PERICENTER": 45.6122,
        "MEAN_ANOMALY": 59.0338,
        "EPHEMERIS_TYPE": 0,
        "CLASSIFICATION_TYPE": "U",
        "NORAD_CAT_ID": 29486,
        "ELEMENT_SET_NO": 999,
        "REV_AT_EPOCH": 13578,
        "BSTAR": 0,
        "MEAN_MOTION_DOT": 4.5e-07,
        "MEAN_MOTION_DDOT": 0
    }
]